[{"OBJECT_NAME":"SDA_1665","OBJECT_ID":"2025-230B","EPOCH":"2026-03-09T22:47:20.541984","MEAN_MOTION":13.85178901,"ECCENTRICITY":0.00037609,"INCLINATION":81.3004,"RA_OF_ASC_NODE":303.6398,"ARG_OF_PERICENTER":117.7881,"MEAN_ANOMALY":242.3658,"EPHEMERIS_TYPE":0,"CLASSIFICATION_TYPE":"U","NORAD_CAT_ID":65975,"ELEMENT_SET_NO":999,"REV_AT_EPOCH":2008,"BSTAR":-0.026076654,"MEAN_MOTION_DOT":-0.00029429,"MEAN_MOTION_DDOT":0},{"OBJECT_NAME":"METEOR 2-13","OBJECT_ID":"1985-119A","EPOCH":"2026-03-09T17:40:49.075968","MEAN_MOTION":13.85581773,"ECCENTRICITY":0.00168695,"INCLINATION":82.5403,"RA_OF_ASC_NODE":333.4086,"ARG_OF_PERICENTER":43.3327,"MEAN_ANOMALY":316.9157,"EPHEMERIS_TYPE":0,"CLASSIFICATION_TYPE":"U","NORAD_CAT_ID":16408,"ELEMENT_SET_NO":999,"REV_AT_EPOCH":3222,"BSTAR":8.1023388e-5,"MEAN_MOTION_DOT":1.08e-6,"MEAN_MOTION_DDOT":0}]
